[{"OBJECT_NAME":"ONEWEB-0627","OBJECT_ID":"2023-004AE","EPOCH":"2025-11-02T07:35:56.374080","MEAN_MOTION":13.17651996,"ECCENTRICITY":0.0001408,"INCLINATION":87.9119,"RA_OF_ASC_NODE":50.9958,"ARG_OF_PERICENTER":84.6766,"MEAN_ANOMALY":275.4526,"EPHEMERIS_TYPE":0,"CLASSIFICATION_TYPE":"U","NORAD_CAT_ID":55168,"ELEMENT_SET_NO":999,"REV_AT_EPOCH":13770,"BSTAR":0.00015144,"MEAN_MOTION_DOT":7.2e-7,"MEAN_MOTION_DDOT":0},{"OBJECT_NAME":"ONEWEB-0628","OBJECT_ID":"2023-004AF","EPOCH":"2025-11-02T12:32:00.919968","MEAN_MOTION":13.12444182,"ECCENTRICITY":0.0001126,"INCLINATION":87.8965,"RA_OF_ASC_NODE":35.6767,"ARG_OF_PERICENTER":95.7013,"MEAN_ANOMALY":264.4244,"EPHEMERIS_TYPE":0,"CLASSIFICATION_TYPE":"U","NORAD_CAT_ID":55169,"ELEMENT_SET_NO":999,"REV_AT_EPOCH":13830,"BSTAR":-0.00031885,"MEAN_MOTION_DOT":-1.02e-6,"MEAN_MOTION_DDOT":0},{"OBJECT_NAME":"ONEWEB-0629","OBJECT_ID":"2023-004AG","EPOCH":"2025-11-02T08:50:03.643872","MEAN_MOTION":13.1764777,"ECCENTRICITY":0.0001814,"INCLINATION":87.9124,"RA_OF_ASC_NODE":50.9824,"ARG_OF_PERICENTER":111.7008,"MEAN_ANOMALY":248.4316,"EPHEMERIS_TYPE":0,"CLASSIFICATION_TYPE":"U","NORAD_CAT_ID":55170,"ELEMENT_SET_NO":999,"REV_AT_EPOCH":13771,"BSTAR":0.00032165,"MEAN_MOTION_DOT":1.38e-6,"MEAN_MOTION_DDOT":0},{"OBJECT_NAME":"ONEWEB-0631","OBJECT_ID":"2023-004AH","EPOCH":"2025-11-02T10:59:34.300032","MEAN_MOTION":13.18687433,"ECCENTRICITY":0.0002172,"INCLINATION":87.9227,"RA_OF_ASC_NODE":20.462,"ARG_OF_PERICENTER":86.7663,"MEAN_ANOMALY":273.3718,"EPHEMERIS_TYPE":0,"CLASSIFICATION_TYPE":"U","NORAD_CAT_ID":55171,"ELEMENT_SET_NO":999,"REV_AT_EPOCH":13979,"BSTAR":0.00015153,"MEAN_MOTION_DOT":7.3e-7,"MEAN_MOTION_DDOT":0},{"OBJECT_NAME":"ONEWEB-0709","OBJECT_ID":"2023-004AJ","EPOCH":"2025-11-02T08:58:36.545376","MEAN_MOTION":13.11420225,"ECCENTRICITY":0.000255,"INCLINATION":87.8846,"RA_OF_ASC_NODE":66.2557,"ARG_OF_PERICENTER":93.8827,"MEAN_ANOMALY":266.2593,"EPHEMERIS_TYPE":0,"CLASSIFICATION_TYPE":"U","NORAD_CAT_ID":55172,"ELEMENT_SET_NO":999,"REV_AT_EPOCH":13614,"BSTAR":-0.0012424,"MEAN_MOTION_DOT":-4.28e-6,"MEAN_MOTION_DDOT":0},{"OBJECT_NAME":"ONEWEB-0710","OBJECT_ID":"2023-004AK","EPOCH":"2025-11-02T07:21:22.473504","MEAN_MOTION":13.17650609,"ECCENTRICITY":0.00016417,"INCLINATION":87.9128,"RA_OF_ASC_NODE":50.9889,"ARG_OF_PERICENTER":96.1438,"MEAN_ANOMALY":263.9881,"EPHEMERIS_TYPE":0,"CLASSIFICATION_TYPE":"U","NORAD_CAT_ID":55173,"ELEMENT_SET_NO":999,"REV_AT_EPOCH":13770,"BSTAR":0.00028414112,"MEAN_MOTION_DOT":1.23e-6,"MEAN_MOTION_DDOT":0},{"OBJECT_NAME":"ONEWEB-0711","OBJECT_ID":"2023-004AL","EPOCH":"2025-11-02T08:17:06.232128","MEAN_MOTION":13.11413216,"ECCENTRICITY":0.0001176,"INCLINATION":87.886,"RA_OF_ASC_NODE":66.2323,"ARG_OF_PERICENTER":77.2877,"MEAN_ANOMALY":282.8382,"EPHEMERIS_TYPE":0,"CLASSIFICATION_TYPE":"U","NORAD_CAT_ID":55174,"ELEMENT_SET_NO":999,"REV_AT_EPOCH":13610,"BSTAR":0.00038029,"MEAN_MOTION_DOT":1.47e-6,"MEAN_MOTION_DDOT":0},{"OBJECT_NAME":"ONEWEB-0713","OBJECT_ID":"2023-004AM","EPOCH":"2025-11-02T08:43:57.808128","MEAN_MOTION":13.11418017,"ECCENTRICITY":0.0001407,"INCLINATION":87.8845,"RA_OF_ASC_NODE":66.2324,"ARG_OF_PERICENTER":90.7211,"MEAN_ANOMALY":269.4078,"EPHEMERIS_TYPE":0,"CLASSIFICATION_TYPE":"U","NORAD_CAT_ID":55175,"ELEMENT_SET_NO":999,"REV_AT_EPOCH":13609,"BSTAR":-0.001496,"MEAN_MOTION_DOT":-5.18e-6,"MEAN_MOTION_DDOT":0},{"OBJECT_NAME":"ONEWEB-0715","OBJECT_ID":"2023-004AN","EPOCH":"2025-11-02T08:36:38.863296","MEAN_MOTION":13.11417243,"ECCENTRICITY":0.0002215,"INCLINATION":87.8843,"RA_OF_ASC_NODE":66.2333,"ARG_OF_PERICENTER":85.7969,"MEAN_ANOMALY":274.3412,"EPHEMERIS_TYPE":0,"CLASSIFICATION_TYPE":"U","NORAD_CAT_ID":55176,"ELEMENT_SET_NO":999,"REV_AT_EPOCH":13613,"BSTAR":-0.0013225,"MEAN_MOTION_DOT":-4.56e-6,"MEAN_MOTION_DDOT":0},{"OBJECT_NAME":"ONEWEB-0716","OBJECT_ID":"2023-004AP","EPOCH":"2025-11-02T05:22:18.039360","MEAN_MOTION":13.1764982,"ECCENTRICITY":0.00018073,"INCLINATION":87.9133,"RA_OF_ASC_NODE":51.0053,"ARG_OF_PERICENTER":108.5944,"MEAN_ANOMALY":251.5384,"EPHEMERIS_TYPE":0,"CLASSIFICATION_TYPE":"U","NORAD_CAT_ID":55177,"ELEMENT_SET_NO":999,"REV_AT_EPOCH":13769,"BSTAR":0.00077337781,"MEAN_MOTION_DOT":3.13e-6,"MEAN_MOTION_DDOT":0},{"OBJECT_NAME":"ONEWEB-0717","OBJECT_ID":"2023-004AQ","EPOCH":"2025-11-02T08:36:41.990976","MEAN_MOTION":13.17650676,"ECCENTRICITY":0.0001697,"INCLINATION":87.9132,"RA_OF_ASC_NODE":50.9459,"ARG_OF_PERICENTER":89.9258,"MEAN_ANOMALY":270.2068,"EPHEMERIS_TYPE":0,"CLASSIFICATION_TYPE":"U","NORAD_CAT_ID":55178,"ELEMENT_SET_NO":999,"REV_AT_EPOCH":13776,"BSTAR":-0.00034359,"MEAN_MOTION_DOT":-1.21e-6,"MEAN_MOTION_DDOT":0},{"OBJECT_NAME":"ONEWEB-0719","OBJECT_ID":"2023-004AR","EPOCH":"2025-11-02T12:29:58.494624","MEAN_MOTION":13.17651063,"ECCENTRICITY":0.0001596,"INCLINATION":87.9135,"RA_OF_ASC_NODE":50.8962,"ARG_OF_PERICENTER":108.6165,"MEAN_ANOMALY":251.514,"EPHEMERIS_TYPE":0,"CLASSIFICATION_TYPE":"U","NORAD_CAT_ID":55179,"ELEMENT_SET_NO":999,"REV_AT_EPOCH":13773,"BSTAR":0.00026702,"MEAN_MOTION_DOT":1.17e-6,"MEAN_MOTION_DDOT":0},{"OBJECT_NAME":"ONEWEB-0530","OBJECT_ID":"2023-029A","EPOCH":"2025-11-02T10:13:39.142272","MEAN_MOTION":13.20770408,"ECCENTRICITY":0.0001422,"INCLINATION":87.919,"RA_OF_ASC_NODE":319.7102,"ARG_OF_PERICENTER":82.375,"MEAN_ANOMALY":277.7544,"EPHEMERIS_TYPE":0,"CLASSIFICATION_TYPE":"U","NORAD_CAT_ID":55796,"ELEMENT_SET_NO":999,"REV_AT_EPOCH":13121,"BSTAR":-0.00031449,"MEAN_MOTION_DOT":-1.15e-6,"MEAN_MOTION_DDOT":0},{"OBJECT_NAME":"ONEWEB-0534","OBJECT_ID":"2023-029B","EPOCH":"2025-11-02T11:44:33.741024","MEAN_MOTION":13.20771116,"ECCENTRICITY":0.0001855,"INCLINATION":87.9183,"RA_OF_ASC_NODE":319.6989,"ARG_OF_PERICENTER":96.337,"MEAN_ANOMALY":263.7974,"EPHEMERIS_TYPE":0,"CLASSIFICATION_TYPE":"U","NORAD_CAT_ID":55797,"ELEMENT_SET_NO":999,"REV_AT_EPOCH":13122,"BSTAR":-3.1548e-5,"MEAN_MOTION_DOT":0,"MEAN_MOTION_DDOT":0},{"OBJECT_NAME":"ONEWEB-0556","OBJECT_ID":"2023-029C","EPOCH":"2025-11-02T11:53:38.753088","MEAN_MOTION":13.20770864,"ECCENTRICITY":0.000135,"INCLINATION":87.9188,"RA_OF_ASC_NODE":319.6962,"ARG_OF_PERICENTER":112.2701,"MEAN_ANOMALY":247.8575,"EPHEMERIS_TYPE":0,"CLASSIFICATION_TYPE":"U","NORAD_CAT_ID":55798,"ELEMENT_SET_NO":999,"REV_AT_EPOCH":13122,"BSTAR":-0.00010893,"MEAN_MOTION_DOT":-3.1e-7,"MEAN_MOTION_DDOT":0},{"OBJECT_NAME":"ONEWEB-0562","OBJECT_ID":"2023-029D","EPOCH":"2025-11-02T11:35:27.318048","MEAN_MOTION":13.20773037,"ECCENTRICITY":9.07e-5,"INCLINATION":87.9183,"RA_OF_ASC_NODE":319.6827,"ARG_OF_PERICENTER":87.179,"MEAN_ANOMALY":272.9447,"EPHEMERIS_TYPE":0,"CLASSIFICATION_TYPE":"U","NORAD_CAT_ID":55799,"ELEMENT_SET_NO":999,"REV_AT_EPOCH":13122,"BSTAR":-0.00015089,"MEAN_MOTION_DOT":-4.8e-7,"MEAN_MOTION_DDOT":0},{"OBJECT_NAME":"ONEWEB-0563","OBJECT_ID":"2023-029E","EPOCH":"2025-11-02T11:26:22.541856","MEAN_MOTION":13.20770413,"ECCENTRICITY":0.0001894,"INCLINATION":87.9191,"RA_OF_ASC_NODE":319.7094,"ARG_OF_PERICENTER":101.2177,"MEAN_ANOMALY":258.9169,"EPHEMERIS_TYPE":0,"CLASSIFICATION_TYPE":"U","NORAD_CAT_ID":55800,"ELEMENT_SET_NO":999,"REV_AT_EPOCH":13121,"BSTAR":0.0001277,"MEAN_MOTION_DOT":6.5e-7,"MEAN_MOTION_DDOT":0}]
